     3.02           N: GNSS NAV DATA    E: GALILEO          RINEX VERSION / TYPE
Converto v3.5.6     IGN                 20210829 012102 UTC PGM / RUN BY / DATE
GAL    6.5750E+01  3.9063E-02  8.6365E-03  0.0000E+00       IONOSPHERIC CORR
GAUT  1.2107193470E-08-7.105427358E-15 432000 2172          TIME SYSTEM CORR
GPGA  1.1903466657E-08-1.643130076E-14 518400 2172          TIME SYSTEM CORR
    18    18  1929     7                                    LEAP SECONDS
                                                            END OF HEADER
E33 2021 08 28 12 40 00-4.656920209527D-04 4.689582056017D-13 0.000000000000D+00
     4.400000000000D+01-3.600000000000D+01 2.637252709304D-09-8.454110640899D-01
    -1.639127731323D-06 5.096592940390D-05 9.613111615181D-06 5.440603750229D+03
     5.640000000000D+05 3.352761268616D-08 1.023851285321D+00 5.401670932770D-08
     9.956643020318D-01 1.494687500000D+02 2.257035295860D+00-5.329864867408D-09
     1.371485699313D-10 5.130000000000D+02 2.172000000000D+03 0.000000000000D+00
     3.120000000000D+00 0.000000000000D+00-3.259629011154D-09-3.725290298462D-09
     5.646640000000D+05
E33 2021 08 28 12 50 00-4.656916717067D-04 4.689582056017D-13 0.000000000000D+00
     4.500000000000D+01-3.384375000000D+01 2.644753021722D-09-7.723189764940D-01
    -1.545995473862D-06 5.064776632935D-05 9.549781680107D-06 5.440603105545D+03
     5.646000000000D+05 2.048909664154D-08 1.023848018625D+00 5.587935447693D-08
     9.956643664002D-01 1.509375000000D+02 2.258328465702D+00-5.325578974598D-09
     1.442917246152D-10 5.130000000000D+02 2.172000000000D+03 0.000000000000D+00
     3.120000000000D+00 0.000000000000D+00-3.259629011154D-09-3.725290298462D-09
     5.652640000000D+05
E33 2021 08 28 13 00 00-4.656913806684D-04 4.689582056017D-13 0.000000000000D+00
     4.600000000000D+01-3.193750000000D+01 2.650110387735D-09-6.985898860900D-01
    -1.464039087296D-06 5.038501694798D-05 9.510666131973D-06 5.440602579117D+03
     5.652000000000D+05 7.450580596924D-09 1.023844759244D+00 5.587935447693D-08
     9.956644395461D-01 1.518750000000D+02 2.258984705883D+00-5.320935924053D-09
     1.507205638307D-10 5.130000000000D+02 2.172000000000D+03 0.000000000000D+00
     3.120000000000D+00 0.000000000000D+00-3.259629011154D-09-3.725290298462D-09
     5.658640000000D+05
E33 2021 08 28 13 10 00-4.656910314225D-04 4.831690603169D-13 0.000000000000D+00
     4.700000000000D+01-3.040625000000D+01 2.653324807343D-09-6.243951854343D-01
    -1.396983861923D-06 5.018757656217D-05 9.492039680481D-06 5.440602186203D+03
     5.658000000000D+05-1.862645149231D-09 1.023841507177D+00 5.215406417847D-08
     9.956645229325D-01 1.523125000000D+02 2.259175407495D+00-5.316292873509D-09
     1.557207721095D-10 5.130000000000D+02 2.172000000000D+03 0.000000000000D+00
     3.120000000000D+00 0.000000000000D+00-3.259629011154D-09-3.725290298462D-09
     5.664640000000D+05
E33 2021 08 28 13 20 00-4.656906821765D-04 4.973799150321D-13 0.000000000000D+00
     4.800000000000D+01-2.943750000000D+01 2.654396280545D-09-5.499159925627D-01
    -1.354143023491D-06 5.006534047425D-05 9.488314390182D-06 5.440601943970D+03
     5.664000000000D+05-9.313225746155D-09 1.023838266813D+00 4.656612873077D-08
     9.956646136334D-01 1.524375000000D+02 2.259081687111D+00-5.312006980698D-09
     1.600066649198D-10 5.130000000000D+02 2.172000000000D+03 0.000000000000D+00
     3.120000000000D+00 0.000000000000D+00-3.259629011154D-09-3.725290298462D-09
     5.670640000000D+05
E33 2021 08 28 13 30 00-4.656903911382D-04 4.973799150321D-13 0.000000000000D+00
     4.900000000000D+01-2.906250000000D+01 2.653324807343D-09-4.753896439897D-01
    -1.337379217148D-06 5.002028774470D-05 9.490177035332D-06 5.440601852417D+03
     5.670000000000D+05-1.490116119385D-08 1.023835036690D+00 4.284083843231D-08
     9.956647087231D-01 1.523750000000D+02 2.258940873932D+00-5.308435403356D-09
     1.632210845276D-10 5.130000000000D+02 2.172000000000D+03 0.000000000000D+00
     3.120000000000D+00 0.000000000000D+00-3.259629011154D-09-3.725290298462D-09
     5.676640000000D+05
E33 2021 08 28 13 40 00-4.656902165152D-04 4.831690603169D-13 0.000000000000D+00
     5.000000000000D+01-2.931250000000D+01 2.650110387735D-09-4.010200924394D-01
    -1.344829797745D-06 5.005206912756D-05 9.493902325630D-06 5.440601913452D+03
     5.676000000000D+05-1.862645149231D-08 1.023831816808D+00 3.725290298462D-08
     9.956648096644D-01 1.523437500000D+02 2.258956914828D+00-5.304863826014D-09
     1.657211886670D-10 5.130000000000D+02 2.172000000000D+03 0.000000000000D+00
     3.120000000000D+00 0.000000000000D+00-3.259629011154D-09-3.725290298462D-09
     5.682640000000D+05
E33 2021 08 28 13 50 00-4.656901000999D-04 4.831690603169D-13 0.000000000000D+00
     5.100000000000D+01-3.012500000000D+01 2.644753021722D-09-3.270250771757D-01
    -1.378357410431D-06 5.015486385673D-05 9.488314390182D-06 5.440602117538D+03
     5.682000000000D+05-2.048909664154D-08 1.023828604239D+00 3.166496753693D-08
     9.956649135316D-01 1.525000000000D+02 2.259347541751D+00-5.302006564141D-09
     1.678641350722D-10 5.130000000000D+02 2.172000000000D+03 0.000000000000D+00
     3.120000000000D+00 0.000000000000D+00-3.259629011154D-09-3.725290298462D-09
     5.688640000000D+05
E33 2021 08 28 14 00 00-4.656899836846D-04 4.689582056017D-13 0.000000000000D+00
     5.200000000000D+01-3.140625000000D+01 2.637609867038D-09-2.535864096575D-01
    -1.430511474609D-06 5.031889304519D-05 9.467825293541D-06 5.440602453232D+03
     5.688000000000D+05-2.235174179077D-08 1.023825398986D+00 2.793967723846D-08
     9.956650188617D-01 1.530000000000D+02 2.260294552992D+00-5.298792144533D-09
     1.692927660089D-10 5.130000000000D+02 2.172000000000D+03 0.000000000000D+00
     3.120000000000D+00 0.000000000000D+00-3.259629011154D-09-3.725290298462D-09
     5.694640000000D+05
E33 2021 08 28 14 10 00-4.656898090616D-04 4.547473508865D-13 0.000000000000D+00
     5.300000000000D+01-3.300000000000D+01 2.628680923683D-09-1.808101953332D-01
    -1.495704054832D-06 5.053367931396D-05 9.428709745407D-06 5.440602907181D+03
     5.694000000000D+05-2.235174179077D-08 1.023822195195D+00 2.235174179077D-08
     9.956651285805D-01 1.539375000000D+02 2.261904043760D+00-5.295934882660D-09
     1.707213969457D-10 5.130000000000D+02 2.172000000000D+03 0.000000000000D+00
     3.120000000000D+00 0.000000000000D+00-3.259629011154D-09-3.725290298462D-09
     5.700640000000D+05
E33 2021 08 28 14 20 00-4.656896344386D-04 4.547473508865D-13 0.000000000000D+00
     5.400000000000D+01-3.471875000000D+01 2.617966191657D-09-1.087733895454D-01
    -1.566484570503D-06 5.078467074782D-05 9.370967745781D-06 5.440603456497D+03
     5.700000000000D+05-2.048909664154D-08 1.023818998719D+00 1.862645149231D-08
     9.956652382994D-01 1.553750000000D+02 2.264252953304D+00-5.293434778520D-09
     1.717928701483D-10 5.130000000000D+02 2.172000000000D+03 0.000000000000D+00
     3.120000000000D+00 0.000000000000D+00-3.259629011154D-09-3.725290298462D-09
     5.706640000000D+05
E33 2021 08 28 14 30 00-4.656893434003D-04 4.547473508865D-13 0.000000000000D+00
     5.500000000000D+01-3.637500000000D+01 2.606537144163D-09-3.743933595576D-02
    -1.635402441025D-06 5.105766467750D-05 9.292736649513D-06 5.440604080200D+03
     5.706000000000D+05-1.862645149231D-08 1.023815806632D+00 1.676380634308D-08
     9.956653480183D-01 1.572812500000D+02 2.267304610658D+00-5.290934674381D-09
     1.725071856167D-10 5.130000000000D+02 2.172000000000D+03 0.000000000000D+00
     3.120000000000D+00 0.000000000000D+00-3.259629011154D-09-3.725290298462D-09
     5.712640000000D+05
E33 2021 08 28 14 40 00-4.656890523620D-04 4.547473508865D-13 0.000000000000D+00
     5.600000000000D+01-3.784375000000D+01 2.594036623466D-09 3.327030323596D-02
    -1.695007085800D-06 5.133904051036D-05 9.197741746902D-06 5.440604751587D+03
     5.712000000000D+05-1.676380634308D-08 1.023812621859D+00 1.490116119385D-08
     9.956654577371D-01 1.595937500000D+02 2.270980667780D+00-5.289148885710D-09
     1.728643433509D-10 5.130000000000D+02 2.172000000000D+03 0.000000000000D+00
     3.120000000000D+00 0.000000000000D+00-3.026798367500D-09-3.492459654808D-09
     5.718640000000D+05
E33 2021 08 28 14 50 00-4.656887031160D-04 4.689582056017D-13 0.000000000000D+00
     5.700000000000D+01-3.896875000000D+01 2.581893260503D-09 1.034711994994D-01
    -1.741573214531D-06 5.161529406905D-05 9.093433618546D-06 5.440605447769D+03
     5.718000000000D+05-1.490116119385D-08 1.023809441476D+00 1.303851604462D-08
     9.956655659930D-01 1.621875000000D+02 2.275165437110D+00-5.288077412507D-09
     1.728643433509D-10 5.130000000000D+02 2.172000000000D+03 0.000000000000D+00
     3.120000000000D+00 0.000000000000D+00-3.026798367500D-09-3.492459654808D-09
     5.724640000000D+05
E33 2021 08 28 15 00 00-4.656883538701D-04 4.689582056017D-13 0.000000000000D+00
     5.800000000000D+01-3.971875000000D+01 2.569749897541D-09 1.733368944174D-01
    -1.769512891769D-06 5.187431816012D-05 8.983537554741D-06 5.440606142044D+03
     5.724000000000D+05-1.490116119385D-08 1.023806268406D+00 1.303851604462D-08
     9.956656713231D-01 1.649062500000D+02 2.279685372675D+00-5.287720254773D-09
     1.728643433509D-10 5.130000000000D+02 2.172000000000D+03 0.000000000000D+00
     3.120000000000D+00 0.000000000000D+00-3.026798367500D-09-3.492459654808D-09
     5.730640000000D+05
E33 2021 08 28 15 10 00-4.656879464164D-04 4.831690603169D-13 0.000000000000D+00
     5.900000000000D+01-4.000000000000D+01 2.557963692312D-09 2.430733946511D-01
    -1.780688762665D-06 5.210656672716D-05 8.877366781235D-06 5.440606805801D+03
     5.730000000000D+05-1.490116119385D-08 1.023803099726D+00 1.303851604462D-08
     9.956657693387D-01 1.675937500000D+02 2.284334456111D+00-5.288434570241D-09
     1.728643433509D-10 5.130000000000D+02 2.172000000000D+03 0.000000000000D+00
     3.120000000000D+00 0.000000000000D+00-3.026798367500D-09-3.492459654808D-09
     5.736640000000D+05
